[
    {
        "Altitude(m)": 622200.1092642404,
        "Argument of Periapsis(deg)": 0.0,
        "Eccentricity": 0.0,
        "Inclination(deg)": 60.0,
        "Latitude(deg)": -52.162543922275106,
        "Longitude(deg)": 12.360893297552748,
        "Mean Anomaly(deg)": -65.45450000000001,
        "RAAN(deg)": 160.0,
        "Satellite Name": "Test1 722",
        "Satellite Number": 722,
        "Semi-Major Axis(m)": 6980739.136638005,
        "Time(s)": 0
    },
    {
        "Altitude(m)": 622058.2764849468,
        "Argument of Periapsis(deg)": 0.00010418945913296404,
        "Eccentricity": 0.0,
        "Inclination(deg)": 60.0,
        "Latitude(deg)": -51.79929210289005,
        "Longitude(deg)": 13.128949438021143,
        "Mean Anomaly(deg)": -64.83439385453815,
        "RAAN(deg)": 159.99957995086024,
        "Satellite Name": "Test1 722",
        "Satellite Number": 722,
        "Semi-Major Axis(m)": 6980739.136638005,
        "Time(s)": 10
    }
]